ONEWEB-0603             
1 54667U 22166AB  24036.59500978  .00000062  00000+0  11922-3 0  9998
2 54667  87.9208  55.6746 0001744 108.4870 251.6453 13.21828880 57527
ONEWEB-0604             
1 54668U 22166AC  24036.58240861  .00000021  00000+0  19091-4 0  9991
2 54668  87.9200  55.6665 0002222  96.5622 263.5765 13.21825839 57950
ONEWEB-0605             
1 54669U 22166AD  24036.57609084  .00000029  00000+0  37572-4 0  9999
2 54669  87.9201  55.7013 0001409 109.8655 250.2631 13.21826286 58021
ONEWEB-0606             
1 54670U 22166AE  24036.59816712  .00000070  00000+0  13882-3 0  9994
2 54670  87.9206  55.6799 0001937  86.5143 273.6212 13.21827270 57619
ONEWEB-0607             
1 54671U 22166AF  24036.79214022  .00000020  00000+0  17297-4 0  9993
2 54671  87.9205  55.6232 0001807 103.4147 256.7189 13.21828346 58071
ONEWEB-0608             
1 54672U 22166AG  24036.57135206  .00000049  00000+0  87896-4 0  9999
2 54672  87.9209  55.6812 0001541 114.1512 245.9783 13.21827754 58050
ONEWEB-0610             
1 54673U 22166AH  24036.55242637 -.00000299  00000+0 -75592-3 0  9993
2 54673  87.9205  55.6865 0001603 107.8454 252.2855 13.21825347 57492
ONEWEB-0611             
1 54674U 22166AJ  24036.77321573  .00000028  00000+0  36872-4 0  9992
2 54674  87.9203  55.6420 0002257  84.8041 275.3350 13.21826992 57987
